#dP2023  7 17 12  0  0.00000000      96 __u+U ITR00 EXT  IAC
## 2271 129600.00000000   900.00000000 60142 0.5000000000000
+  118   C06C07C08C09C10C11C12C13C14C16C19C20C21C22C23C24C25
+        C26C27C28C29C30C32C33C34C35C36C37C38C39C40C41C42C43
+        C44C45C46E02E03E04E05E07E08E09E10E11E12E13E14E15E18
+        E19E21E24E25E26E27E30E31E34E36G01G02G03G04G05G06G07
+        G08G09G10G11G12G13G14G15G16G17G18G19G20G21G22G23G24
+        G25G26G27G28G29G30G31G32J02J03J04R01R02R03R04R05R07
+        R08R09R11R12R13R14R15R16R17R18R19R20R21R22R24R25  0
++        10 10  9 10  9 10  9 10 11  9  9  8 10  9  8  8  9
++         9  7  6  7  8  7  9  8 10  8  9  9  9  9 10 10  9
++         8  8  9  8  9  8  8  7  8  7  8  7  8  8  7  8  7
++         8  8  8  7  7  7  8  7  8  7  8  8  7  6  8  7  8
++         8  7  8  7  8  8  6  8  8  7  8  7  7  6  8  7  7
++         7  7 11  7  8  8  8  8 10  9  8  9  7  8  9  7  9
++         8  8  8  8  6  9  7  8  8  9  8  9  9  7  7  7  0
%c M  cc GPS ccc cccc cccc cccc cccc ccccc ccccc ccccc ccccc
%c cc cc ccc ccc cccc cccc cccc cccc ccccc ccccc ccccc ccccc
%f  0.0000000  0.000000000  0.00000000000  0.000000000000000
%f  0.0000000  0.000000000  0.00000000000  0.000000000000000
%i    0    0    0    0      0      0      0      0         0
%i    0    0    0    0      0      0      0      0         0
/* IAC                                ULTRA-RAPID PREDICTION
/* S/V CLOCKS ARE ALIGNED TO GNSS TIME                      
/* G:C1WC2W R:C1PC2P E:C1XC5X C:C2IC6I J:C1CC2S             
/* PCV:IGS20_2247 OL/AL:FES2004  NONE     YN ORB:CoN CLK:CoN
*  2023 07 17 18  0  0.00000000
PC06 -19642.506806  30631.254324  21086.178415    399.979111
PC07  -4669.099901  39724.785995  13725.677639   -337.533229
PC08  -2697.756011  21148.180049 -36370.363417    424.702609
PC09  -9972.245414  29431.869778  28659.002986    404.794467
PC10    -83.301058  41531.278105   9135.423803   -117.393547
PC11   8045.333629  13455.227875 -23026.735902    731.188976
PC12  -9267.567127  22429.344237 -13757.977705    795.851096
PC13   4236.298602  24390.152301 -33929.264319    317.294158
PC14  13129.772969  23108.828196   8621.325059     73.915260
PC16 -20132.840300  30510.067956  20985.245514      2.118910
PC19 -16318.651747 -15545.985419 -16417.353766   -941.412120
PC20  -8748.855778 -26454.440821  -1129.370250    428.872212
PC21  -4785.056794  22268.879545 -16132.271176   -936.072459
PC22 -14899.348026   4935.878812 -23079.833671   -392.038633
PC23  26029.562768  -1224.791971  -9972.298589   -939.881958
PC24   8429.396510  17114.649685  20355.549479    183.387359
PC25  25145.516094  10147.801872   6547.152019    169.964785
PC26 -11058.815737  13623.415743  21694.672900   -150.125491
PC27  15500.550125 -22354.023354   6219.564370    170.994652
PC28      0.000000      0.000000      0.000000    127.498212
PC29 -16364.418352  -4818.065669  22076.673183    148.545889
PC30   -368.797731 -20020.270059  19432.736082     -2.339974
PC32   4717.946450 -22205.445525  16228.583245   -538.386778
PC33  16430.885841  15565.308955  16339.694934   -915.601266
PC34   1689.904150  19289.328824 -20104.246340    216.902673
PC35 -21967.691550  13737.676869  10311.472445    586.607450
PC36 -24543.041157 -11133.237531  -7222.446870   -324.316889
PC37  12357.534288 -12924.024514 -21400.503293   -794.381064
PC38 -11792.243865  19755.083213 -35311.225510     92.193188
PC39 -24391.150141  31044.679627  14488.323373     -3.868225
PC40  -9740.100896  37147.344166  17709.991450    -29.754310
PC41  15192.438999  -4168.693413  23082.910332   -901.342222
PC42   7976.558242  26758.142587   -211.077753   -608.969557
PC43  15899.690127   5747.520971 -22216.826981     31.131413
PC44 -14706.878992  22915.423548  -6066.220381    171.630469
PC45 -25832.020441   1516.060236  10481.287319     -2.986571
PC46 -10019.406931 -16941.013049 -19790.750664    -69.610258
PE02 -20273.908338    392.012819  21568.923233     50.318671
PE03 -17967.652830  12314.902135 -20050.425023    -36.956022
PE04  10937.016046 -27084.446859   4786.609478   -168.834736
PE05 -14575.084503  -9883.013672 -23787.121099      0.485928
PE07   2448.295183  26323.765743  13334.123962    -60.645093
PE08 -11082.142743  26967.219776  -5158.287976   -115.913561
PE09  -2296.658215 -26357.380868 -13252.131554    -87.999437
PE10   5980.886461 -17132.437605  23369.056739   -549.226863
PE11  -6200.061637 -14951.652997  24764.272596   2508.981357
PE12  16185.484500 -16558.642379  18436.181249   -621.976240
PE13   5379.781633  15123.178858 -24873.982265    -19.326390
PE14  -1180.289543 -21170.714318  10093.610189    284.978298
PE15 -16508.628267  16465.600179 -18236.376475    -37.851343
PE18   4330.091140  27535.173986 -16709.632088    307.091745
PE19  18071.080019  -9512.443392  21434.837792  -2055.137560
PE21  23498.658423  16089.692567  -8071.811027   -541.277298
PE24 -12637.281910 -24255.492919 -11349.075433   -214.823284
PE25 -23438.670476 -16328.278164   7766.603894   -608.439891
PE26  24311.113600   4603.341490 -16246.233629    165.823839
PE27  13256.934359  24163.600028  10797.802101   -101.588894
PE30  -5219.229568  17615.701793  23202.164872   -343.359608
PE31   4662.668335 -17918.071966 -23082.821711     -0.597607
PE34 -28422.876165   8224.430873  -1050.421593    -56.593447
PE36 -23817.647877  -4947.003103  16857.123308    -87.358960
PG01   3080.323339  14406.710927 -22441.228044    172.557197
PG02  -3952.136895  15952.105325 -20326.021946   -575.177128
PG03  10874.040849  22011.963354 -10423.324787   -228.498081
PG04   1599.615267  23051.299503  13002.770207     98.535996
PG05   3234.633378 -16498.652097  20353.167659   -135.260439
PG06  26084.381595  -5215.492885   -745.285920    576.993915
PG07  19129.158948   8272.167708  17204.054363    122.351648
PG08  -5609.077392  25665.143981  -2044.408402   -132.668217
PG09   9406.100328  15911.758596  18980.151858   -109.843594
PG10 -20566.771190  -6972.746283 -15328.639057    -45.540536
PG11  19329.828617 -12632.699889  13091.267222   -280.156596
PG12  -6357.209783 -22382.642578 -13152.722581   -401.850707
PG13  13411.331138 -22423.125429   3903.855024    548.365509
PG14  21027.907689   9842.519392 -13026.782318    125.321428
PG15   1798.499217 -26228.486378  -3097.525923     58.925581
PG16  -8742.543782  12743.204055  21239.623482   -479.640651
PG17  15747.640724  -1474.253643 -20924.893233    721.138505
PG18 -21002.989610  -6126.345823  15175.334147   -349.089238
PG19  17257.878421  -8598.862273 -18335.261220    345.186929
PG20  12166.352493  -9995.987900  21404.769663    422.165359
PG21  -6378.027981  16182.776117 -19259.806016    152.036557
PG22 -16799.500167  12707.539118 -15629.858599    514.135143
PG23 -20576.721467 -16229.084522  -4824.884630     44.331253
PG24    995.485732 -16648.277214 -20964.174022   -260.891760
PG25 -17058.059873 -20432.447156  -2481.471441    456.698351
PG26 -17354.327055   3770.319033  19727.390520    236.166604
PG27 -12743.431931  21227.167634   8781.264760     -5.003560
PG28 -25959.541790   4829.226577  -2881.864451     82.167051
PG29  -6762.226755 -17466.623703  18740.098624   -605.729364
PG30  24930.963895   1662.239133   9510.203963   -503.568109
PG31 -23251.865735  10525.555725   7917.337931   -220.228501
PG32 -16204.939874   4739.002398 -20274.133222   -523.019006
PJ02 -26587.370208  21465.667056  29802.481614     -1.476055
PJ03 -34943.556124  22504.455082  -2855.353009     -0.148315
PJ04 -18544.584620  29038.676653 -19245.996055     97.032252
PR01  10883.846897  -1463.913008  23023.313542     61.578488
PR02   5534.975808 -19247.528889  15880.833984    -22.605150
PR03  -2943.121819 -25365.362096   -366.377502     81.683134
PR04  -9291.575946 -17433.482309 -16116.673166    195.280885
PR05 -10786.686725   -112.670287 -23104.983792    115.906635
PR07   3362.683286  25226.256219   1349.433564     60.391014
PR08   9578.691723  17128.941465  16334.979323    -71.690982
PR09 -10159.285103   7702.517079  22102.817666    131.697894
PR11  20733.430839  12737.677866   7698.321230   -106.955458
PR12  22527.511709   3837.149481 -11291.471789     29.192412
PR13  12086.112357  -6197.375819 -21598.708219    -37.195415
PR14  -7681.582838 -13823.169372 -19988.542048     24.971326
PR15 -21256.139995 -12562.795253  -6361.654362     87.759216
PR16 -22613.540229  -3883.072222  11120.721949     16.762321
PR17   4788.798038 -14823.622847  20185.516249      0.654599
PR18 -10357.871440  -5191.584515  22728.061700     92.046255
PR19 -20095.609345   5541.772537  14701.856838   -240.185315
PR20 -19282.024832  15738.765156  -5498.907296    -96.756792
PR21  -3838.000233  14273.213694 -20804.245123    -23.429833
PR22  11266.846067   5139.613326 -22279.448397     96.768528
PR24  18333.625495 -16651.275940   6071.302304    -16.925499
PR25  -5438.583583  14877.950647 -20000.420267     46.872353
EOF
